[{"OBJECT_NAME":"KUIPER-00008","OBJECT_ID":"2025-088A","EPOCH":"2026-03-05T18:00:00.998784","MEAN_MOTION":14.91981666,"ECCENTRICITY":0.0009887,"INCLINATION":51.8937,"RA_OF_ASC_NODE":105.1383,"ARG_OF_PERICENTER":86.0282,"MEAN_ANOMALY":38.8224,"EPHEMERIS_TYPE":0,"CLASSIFICATION_TYPE":"U","NORAD_CAT_ID":63724,"ELEMENT_SET_NO":999,"REV_AT_EPOCH":555,"BSTAR":-0.0027789,"MEAN_MOTION_DOT":-0.00028606,"MEAN_MOTION_DDOT":0},{"OBJECT_NAME":"KUIPER-00009","OBJECT_ID":"2025-088B","EPOCH":"2026-03-05T11:03:56.535264","MEAN_MOTION":14.79894934,"ECCENTRICITY":0.0007643,"INCLINATION":51.9028,"RA_OF_ASC_NODE":125.3385,"ARG_OF_PERICENTER":84.0257,"MEAN_ANOMALY":276.1576,"EPHEMERIS_TYPE":0,"CLASSIFICATION_TYPE":"U","NORAD_CAT_ID":63725,"ELEMENT_SET_NO":999,"REV_AT_EPOCH":4715,"BSTAR":0.0001328,"MEAN_MOTION_DOT":7.89e-6,"MEAN_MOTION_DDOT":0},{"OBJECT_NAME":"KUIPER-00010","OBJECT_ID":"2025-088C","EPOCH":"2026-03-05T12:29:56.478912","MEAN_MOTION":14.79922563,"ECCENTRICITY":7.57e-5,"INCLINATION":51.9024,"RA_OF_ASC_NODE":101.5275,"ARG_OF_PERICENTER":85.4285,"MEAN_ANOMALY":274.6763,"EPHEMERIS_TYPE":0,"CLASSIFICATION_TYPE":"U","NORAD_CAT_ID":63726,"ELEMENT_SET_NO":999,"REV_AT_EPOCH":4711,"BSTAR":3.1541e-6,"MEAN_MOTION_DOT":-1.97e-6,"MEAN_MOTION_DDOT":0},{"OBJECT_NAME":"KUIPER-00011","OBJECT_ID":"2025-088D","EPOCH":"2026-03-05T16:20:51.069696","MEAN_MOTION":14.79868827,"ECCENTRICITY":5.26e-5,"INCLINATION":51.9,"RA_OF_ASC_NODE":108.3793,"ARG_OF_PERICENTER":89.825,"MEAN_ANOMALY":270.2773,"EPHEMERIS_TYPE":0,"CLASSIFICATION_TYPE":"U","NORAD_CAT_ID":63727,"ELEMENT_SET_NO":999,"REV_AT_EPOCH":4716,"BSTAR":-0.0049518,"MEAN_MOTION_DOT":-0.00037702,"MEAN_MOTION_DDOT":0},{"OBJECT_NAME":"KUIPER-00012","OBJECT_ID":"2025-088E","EPOCH":"2026-03-05T18:00:00.998784","MEAN_MOTION":14.80004007,"ECCENTRICITY":3.93e-5,"INCLINATION":51.8994,"RA_OF_ASC_NODE":93,"ARG_OF_PERICENTER":57.2961,"MEAN_ANOMALY":42.1619,"EPHEMERIS_TYPE":0,"CLASSIFICATION_TYPE":"U","NORAD_CAT_ID":63728,"ELEMENT_SET_NO":999,"REV_AT_EPOCH":400,"BSTAR":-0.0064179,"MEAN_MOTION_DOT":-0.00048875,"MEAN_MOTION_DDOT":0},{"OBJECT_NAME":"KUIPER-00013","OBJECT_ID":"2025-088F","EPOCH":"2026-03-05T11:02:27.574368","MEAN_MOTION":14.80007865,"ECCENTRICITY":0.0002595,"INCLINATION":51.9005,"RA_OF_ASC_NODE":126.8001,"ARG_OF_PERICENTER":43.6142,"MEAN_ANOMALY":316.5025,"EPHEMERIS_TYPE":0,"CLASSIFICATION_TYPE":"U","NORAD_CAT_ID":63729,"ELEMENT_SET_NO":999,"REV_AT_EPOCH":4694,"BSTAR":0.0022583,"MEAN_MOTION_DOT":0.00017069,"MEAN_MOTION_DDOT":0},{"OBJECT_NAME":"KUIPER-00014","OBJECT_ID":"2025-088G","EPOCH":"2026-03-05T15:51:35.158176","MEAN_MOTION":14.79924535,"ECCENTRICITY":4.04e-5,"INCLINATION":51.9017,"RA_OF_ASC_NODE":126.8827,"ARG_OF_PERICENTER":7.8272,"MEAN_ANOMALY":352.2697,"EPHEMERIS_TYPE":0,"CLASSIFICATION_TYPE":"U","NORAD_CAT_ID":63730,"ELEMENT_SET_NO":999,"REV_AT_EPOCH":4677,"BSTAR":-0.0012961,"MEAN_MOTION_DOT":-0.00010085,"MEAN_MOTION_DDOT":0},{"OBJECT_NAME":"KUIPER-00015","OBJECT_ID":"2025-088H","EPOCH":"2026-03-05T14:44:01.774752","MEAN_MOTION":14.83609012,"ECCENTRICITY":0.0009705,"INCLINATION":51.8986,"RA_OF_ASC_NODE":136.4627,"ARG_OF_PERICENTER":61.3445,"MEAN_ANOMALY":298.8494,"EPHEMERIS_TYPE":0,"CLASSIFICATION_TYPE":"U","NORAD_CAT_ID":63731,"ELEMENT_SET_NO":999,"REV_AT_EPOCH":4709,"BSTAR":0.00095223,"MEAN_MOTION_DOT":7.713e-5,"MEAN_MOTION_DDOT":0},{"OBJECT_NAME":"KUIPER-00016","OBJECT_ID":"2025-088J","EPOCH":"2026-03-04T13:52:07.747680","MEAN_MOTION":14.79852213,"ECCENTRICITY":0.0006561,"INCLINATION":51.9003,"RA_OF_ASC_NODE":134.2029,"ARG_OF_PERICENTER":62.017,"MEAN_ANOMALY":298.1456,"EPHEMERIS_TYPE":0,"CLASSIFICATION_TYPE":"U","NORAD_CAT_ID":63732,"ELEMENT_SET_NO":999,"REV_AT_EPOCH":4657,"BSTAR":0.00086949,"MEAN_MOTION_DOT":6.402e-5,"MEAN_MOTION_DDOT":0},{"OBJECT_NAME":"KUIPER-00018","OBJECT_ID":"2025-088K","EPOCH":"2026-03-05T18:00:00.998784","MEAN_MOTION":14.79808497,"ECCENTRICITY":0.0001432,"INCLINATION":51.9007,"RA_OF_ASC_NODE":117.9882,"ARG_OF_PERICENTER":116.2333,"MEAN_ANOMALY":306.9531,"EPHEMERIS_TYPE":0,"CLASSIFICATION_TYPE":"U","NORAD_CAT_ID":63733,"ELEMENT_SET_NO":999,"REV_AT_EPOCH":315,"BSTAR":-0.003217,"MEAN_MOTION_DOT":-0.00024584,"MEAN_MOTION_DDOT":0},{"OBJECT_NAME":"KUIPER-00019","OBJECT_ID":"2025-088L","EPOCH":"2026-03-05T09:38:24.270720","MEAN_MOTION":14.79931963,"ECCENTRICITY":0.000102,"INCLINATION":51.9014,"RA_OF_ASC_NODE":118.0604,"ARG_OF_PERICENTER":78.0013,"MEAN_ANOMALY":282.1064,"EPHEMERIS_TYPE":0,"CLASSIFICATION_TYPE":"U","NORAD_CAT_ID":63734,"ELEMENT_SET_NO":999,"REV_AT_EPOCH":4687,"BSTAR":5.1175e-5,"MEAN_MOTION_DOT":1.69e-6,"MEAN_MOTION_DDOT":0},{"OBJECT_NAME":"KUIPER-00020","OBJECT_ID":"2025-088M","EPOCH":"2026-03-05T11:10:23.573568","MEAN_MOTION":14.79864574,"ECCENTRICITY":0.0006725,"INCLINATION":51.901,"RA_OF_ASC_NODE":121.7693,"ARG_OF_PERICENTER":69.7848,"MEAN_ANOMALY":290.3837,"EPHEMERIS_TYPE":0,"CLASSIFICATION_TYPE":"U","NORAD_CAT_ID":63735,"ELEMENT_SET_NO":999,"REV_AT_EPOCH":4703,"BSTAR":-0.00050225,"MEAN_MOTION_DOT":-4.045e-5,"MEAN_MOTION_DDOT":0},{"OBJECT_NAME":"KUIPER-00021","OBJECT_ID":"2025-088N","EPOCH":"2026-03-05T12:45:10.901088","MEAN_MOTION":14.79929364,"ECCENTRICITY":0.0003548,"INCLINATION":51.9013,"RA_OF_ASC_NODE":122.4734,"ARG_OF_PERICENTER":72.89,"MEAN_ANOMALY":287.2451,"EPHEMERIS_TYPE":0,"CLASSIFICATION_TYPE":"U","NORAD_CAT_ID":63736,"ELEMENT_SET_NO":999,"REV_AT_EPOCH":4686,"BSTAR":0.00016272,"MEAN_MOTION_DOT":1.019e-5,"MEAN_MOTION_DDOT":0},{"OBJECT_NAME":"KUIPER-00023","OBJECT_ID":"2025-088P","EPOCH":"2026-03-05T14:20:52.837728","MEAN_MOTION":14.79894637,"ECCENTRICITY":0.0008345,"INCLINATION":51.9006,"RA_OF_ASC_NODE":123.6386,"ARG_OF_PERICENTER":87.7648,"MEAN_ANOMALY":272.4269,"EPHEMERIS_TYPE":0,"CLASSIFICATION_TYPE":"U","NORAD_CAT_ID":63737,"ELEMENT_SET_NO":999,"REV_AT_EPOCH":4715,"BSTAR":-6.4948e-5,"MEAN_MOTION_DOT":-7.18e-6,"MEAN_MOTION_DDOT":0},{"OBJECT_NAME":"KUIPER-00024","OBJECT_ID":"2025-088Q","EPOCH":"2026-03-05T03:19:33.683520","MEAN_MOTION":14.79927953,"ECCENTRICITY":7.864e-5,"INCLINATION":51.9028,"RA_OF_ASC_NODE":113.2339,"ARG_OF_PERICENTER":107.0936,"MEAN_ANOMALY":253.0113,"EPHEMERIS_TYPE":0,"CLASSIFICATION_TYPE":"U","NORAD_CAT_ID":63738,"ELEMENT_SET_NO":999,"REV_AT_EPOCH":4738,"BSTAR":-0.00012143402,"MEAN_MOTION_DOT":-1.147e-5,"MEAN_MOTION_DDOT":0},{"OBJECT_NAME":"KUIPER-00025","OBJECT_ID":"2025-088R","EPOCH":"2026-03-05T10:49:04.345536","MEAN_MOTION":14.83478668,"ECCENTRICITY":3.77e-5,"INCLINATION":51.9016,"RA_OF_ASC_NODE":120.2029,"ARG_OF_PERICENTER":33.3475,"MEAN_ANOMALY":326.7512,"EPHEMERIS_TYPE":0,"CLASSIFICATION_TYPE":"U","NORAD_CAT_ID":63739,"ELEMENT_SET_NO":999,"REV_AT_EPOCH":4717,"BSTAR":0.00084301,"MEAN_MOTION_DOT":6.776e-5,"MEAN_MOTION_DDOT":0},{"OBJECT_NAME":"KUIPER-00027","OBJECT_ID":"2025-088S","EPOCH":"2026-03-05T12:59:06.582624","MEAN_MOTION":14.79940527,"ECCENTRICITY":7.94e-5,"INCLINATION":51.9008,"RA_OF_ASC_NODE":113.9297,"ARG_OF_PERICENTER":84.0673,"MEAN_ANOMALY":276.0379,"EPHEMERIS_TYPE":0,"CLASSIFICATION_TYPE":"U","NORAD_CAT_ID":63740,"ELEMENT_SET_NO":999,"REV_AT_EPOCH":4700,"BSTAR":0.00087154,"MEAN_MOTION_DOT":6.43e-5,"MEAN_MOTION_DDOT":0}]
